COMMENT,ORIGINATOR,NORAD_CAT_ID,OBJECT_NAME,OBJECT_TYPE,CLASSIFICATION_TYPE,INTLDES,EPOCH,EPOCH_MICROSECONDS,MEAN_MOTION,ECCENTRICITY,INCLINATION,RA_OF_ASC_NODE,ARG_OF_PERICENTER,MEAN_ANOMALY,EPHEMERIS_TYPE,ELEMENT_SET_NO,REV_AT_EPOCH,BSTAR,MEAN_MOTION_DOT,MEAN_MOTION_DDOT,FILE,TLE_LINE0,TLE_LINE1,TLE_LINE2,OBJECT_ID,OBJECT_NUMBER,SEMIMAJOR_AXIS,PERIOD,APOGEE,PERIGEE,DECAYED
"GENERATED VIA SPACETRACK.ORG API","18 SPCS","55095","SPACEBEE-162","PAYLOAD","U","23001CQ","2023-10-08 16:19:42","659040","15.24575941","0.0012451","97.4635","341.0079","329.0487","31.0015","0","999","4236","0.0014678","0.00036313","0","4028564","0 SPACEBEE-162","1 55095U 23001CQ  23281.68035485  .00036313  00000-0  14678-2 0  9999","2 55095  97.4635 341.0079 0012451 329.0487  31.0015 15.24575941 42368","2023-001CQ","55095","6870.196","94.452","500.615","483.507","0"
"GENERATED VIA SPACETRACK.ORG API","18 SPCS","55095","SPACEBEE-162","PAYLOAD","U","23001CQ","2023-10-09 03:21:17","621856","15.24610431","0.0012452","97.4635","341.4657","327.2381","32.8083","0","999","4243","0.0014999","0.00037151","0","4028856","0 SPACEBEE-162","1 55095U 23001CQ  23282.13978729  .00037151  00000-0  14999-2 0  9994","2 55095  97.4635 341.4657 0012452 327.2381  32.8083 15.24610431 42434","2023-001CQ","55095","6870.092","94.450","500.512","483.403","0"
"GENERATED VIA SPACETRACK.ORG API","18 SPCS","55095","SPACEBEE-162","PAYLOAD","U","23001CQ","2023-10-09 03:21:17","621856","15.24610431","0.0012452","97.4635","341.4657","327.2381","32.8083","0","999","4243","0.0014999","0.00037151","0","4029150","0 SPACEBEE-162","1 55095U 23001CQ  23282.13978729  .00037151  00000-0  14999-2 0  9994","2 55095  97.4635 341.4657 0012452 327.2381  32.8083 15.24610431 42434","2023-001CQ","55095","6870.092","94.450","500.512","483.403","0"
"GENERATED VIA SPACETRACK.ORG API","18 SPCS","55095","SPACEBEE-162","PAYLOAD","U","23001CQ","2023-10-09 20:40:53","635296","15.24665327","0.0012482","97.4636","342.1853","324.3754","35.6649","0","999","4254","0.0015832","0.00039294","0","4029504","0 SPACEBEE-162","1 55095U 23001CQ  23282.86173189  .00039294  00000-0  15832-2 0  9998","2 55095  97.4636 342.1853 0012482 324.3754  35.6649 15.24665327 42541","2023-001CQ","55095","6869.928","94.447","500.368","483.218","0"
"GENERATED VIA SPACETRACK.ORG API","18 SPCS","55095","SPACEBEE-162","PAYLOAD","U","23001CQ","2023-10-10 09:16:56","527104","15.24707607","0.0012446","97.4637","342.7084","322.3872","37.6494","0","999","4262","0.0015853","0.00039396","0","4030107","0 SPACEBEE-162","1 55095U 23001CQ  23283.38676536  .00039396  00000-0  15853-2 0  9996","2 55095  97.4637 342.7084 0012446 322.3872  37.6494 15.24707607 42620","2023-001CQ","55095","6869.801","94.444","500.216","483.115","0"
"GENERATED VIA SPACETRACK.ORG API","18 SPCS","55095","SPACEBEE-162","PAYLOAD","U","23001CQ","2023-10-10 09:16:56","527104","15.24707607","0.0012446","97.4637","342.7084","322.3872","37.6494","0","999","4262","0.0015853","0.00039396","0","4030143","0 SPACEBEE-162","1 55095U 23001CQ  23283.38676536  .00039396  00000-0  15853-2 0  9996","2 55095  97.4637 342.7084 0012446 322.3872  37.6494 15.24707607 42620","2023-001CQ","55095","6869.801","94.444","500.216","483.115","0"
"GENERATED VIA SPACETRACK.ORG API","18 SPCS","55095","SPACEBEE-162","PAYLOAD","U","23001CQ","2023-10-10 17:09:27","701280","15.24733107","0.0012417","97.4636","343.0352","321.24","38.7945","0","999","4267","0.0015049","0.00037413","0","4030441","0 SPACEBEE-162","1 55095U 23001CQ  23283.71490395  .00037413  00000-0  15049-2 0  9995","2 55095  97.4636 343.0352 0012417 321.2400  38.7945 15.24733107 42676","2023-001CQ","55095","6869.724","94.443","500.119","483.059","0"
"GENERATED VIA SPACETRACK.ORG API","18 SPCS","55095","SPACEBEE-162","PAYLOAD","U","23001CQ","2023-10-11 10:28:58","751040","15.24783201","0.0012385","97.4638","343.7542","318.7996","41.2305","0","999","4278","0.0013567","0.00033755","0","4031075","0 SPACEBEE-162","1 55095U 23001CQ  23284.43679110  .00033755  00000-0  13567-2 0  9997","2 55095  97.4638 343.7542 0012385 318.7996  41.2305 15.24783201 42782","2023-001CQ","55095","6869.574","94.440","499.946","482.931","0"
"GENERATED VIA SPACETRACK.ORG API","18 SPCS","55095","SPACEBEE-162","PAYLOAD","U","23001CQ","2023-10-11 10:28:58","751040","15.24783201","0.0012385","97.4638","343.7542","318.7996","41.2305","0","999","4278","0.0013567","0.00033755","0","4031093","0 SPACEBEE-162","1 55095U 23001CQ  23284.43679110  .00033755  00000-0  13567-2 0  9997","2 55095  97.4638 343.7542 0012385 318.7996  41.2305 15.24783201 42782","2023-001CQ","55095","6869.574","94.440","499.946","482.931","0"
"GENERATED VIA SPACETRACK.ORG API","18 SPCS","55095","SPACEBEE-162","PAYLOAD","U","23001CQ","2023-10-12 10:06:26","815680","15.24853647","0.0012261","97.4634","344.7355","315.0454","44.979","0","999","4293","0.0013921","0.00034713","0","4031907","0 SPACEBEE-162","1 55095U 23001CQ  23285.42114370  .00034713  00000-0  13921-2 0  9998","2 55095  97.4634 344.7355 0012261 315.0454  44.9790 15.24853647 42930","2023-001CQ","55095","6869.362","94.435","499.649","482.804","0"
"GENERATED VIA SPACETRACK.ORG API","18 SPCS","55095","SPACEBEE-162","PAYLOAD","U","23001CQ","2023-10-12 14:49:55","955136","15.24868195","0.001226","97.4633","344.9317","314.2662","45.7569","0","999","4296","0.0013591","0.000339","0","4032285","0 SPACEBEE-162","1 55095U 23001CQ  23285.61800874  .00033900  00000-0  13591-2 0  9990","2 55095  97.4633 344.9317 0012260 314.2662  45.7569 15.24868195 42960","2023-001CQ","55095","6869.318","94.434","499.605","482.761","0"
"GENERATED VIA SPACETRACK.ORG API","18 SPCS","55095","SPACEBEE-162","PAYLOAD","U","23001CQ","2023-10-12 14:49:55","955136","15.24868195","0.001226","97.4633","344.9317","314.2662","45.7569","0","999","4296","0.0013591","0.000339","0","4032297","0 SPACEBEE-162","1 55095U 23001CQ  23285.61800874  .00033900  00000-0  13591-2 0  9990","2 55095  97.4633 344.9317 0012260 314.2662  45.7569 15.24868195 42960","2023-001CQ","55095","6869.318","94.434","499.605","482.761","0"
"GENERATED VIA SPACETRACK.ORG API","18 SPCS","55095","SPACEBEE-162","PAYLOAD","U","23001CQ","2023-10-13 09:43:51","57120","15.24921358","0.0012252","97.463","345.7166","311.0566","48.9612","0","999","4308","0.0013783","0.00034437","0","4032919","0 SPACEBEE-162","1 55095U 23001CQ  23286.40545205  .00034437  00000-0  13783-2 0  9991","2 55095  97.4630 345.7166 0012252 311.0566  48.9612 15.24921358 43086","2023-001CQ","55095","6869.159","94.431","499.440","482.607","0"
"GENERATED VIA SPACETRACK.ORG API","18 SPCS","55095","SPACEBEE-162","PAYLOAD","U","23001CQ","2023-10-13 17:36:18","213696","15.24951776","0.0012271","97.4628","346.0436","309.7591","50.2565","0","999","4313","0.0016387","0.0004103","0","4033170","0 SPACEBEE-162","1 55095U 23001CQ  23286.73354414  .00041030  00000-0  16387-2 0  9997","2 55095  97.4628 346.0436 0012271 309.7591  50.2565 15.24951776 43136","2023-001CQ","55095","6869.067","94.429","499.361","482.503","0"
"GENERATED VIA SPACETRACK.ORG API","18 SPCS","55095","SPACEBEE-162","PAYLOAD","U","23001CQ","2023-10-13 17:36:18","213696","15.24951776","0.0012271","97.4628","346.0436","309.7591","50.2565","0","999","4313","0.0016387","0.0004103","0","4033175","0 SPACEBEE-162","1 55095U 23001CQ  23286.73354414  .00041030  00000-0  16387-2 0  9997","2 55095  97.4628 346.0436 0012271 309.7591  50.2565 15.24951776 43136","2023-001CQ","55095","6869.067","94.429","499.361","482.503","0"
"GENERATED VIA SPACETRACK.ORG API","18 SPCS","55095","SPACEBEE-162","PAYLOAD","U","23001CQ","2023-10-14 09:21:10","900800","15.25007374","0.0012259","97.4626","346.6976","307.2332","52.7786","0","999","4323","0.001618","0.00040576","0","4033811","0 SPACEBEE-162","1 55095U 23001CQ  23287.38970950  .00040576  00000-0  16180-2 0  9993","2 55095  97.4626 346.6976 0012259 307.2332  52.7786 15.25007374 43231","2023-001CQ","55095","6868.900","94.426","499.186","482.345","0"
"GENERATED VIA SPACETRACK.ORG API","18 SPCS","55095","SPACEBEE-162","PAYLOAD","U","23001CQ","2023-10-14 15:39:07","473312","15.25025177","0.0012236","97.4625","346.959","306.2098","53.8007","0","999","4327","0.0014246","0.00035712","0","4034164","0 SPACEBEE-162","1 55095U 23001CQ  23287.65216983  .00035712  00000-0  14246-2 0  9999","2 55095  97.4625 346.9590 0012236 306.2098  53.8007 15.25025177 43271","2023-001CQ","55095","6868.847","94.425","499.117","482.307","0"
"GENERATED VIA SPACETRACK.ORG API","18 SPCS","55095","SPACEBEE-162","PAYLOAD","U","23001CQ","2023-10-15 02:40:30","835200","15.25056795","0.0012223","97.4623","347.4167","304.5332","55.4752","0","999","4334","0.0014127","0.00035446","0","4034442","0 SPACEBEE-162","1 55095U 23001CQ  23288.11146800  .00035446  00000-0  14127-2 0  9993","2 55095  97.4623 347.4167 0012223 304.5332  55.4752 15.25056795 43346","2023-001CQ","55095","6868.752","94.423","499.013","482.221","0"
"GENERATED VIA SPACETRACK.ORG API","18 SPCS","55095","SPACEBEE-162","PAYLOAD","U","23001CQ","2023-10-15 02:40:30","835200","15.25056795","0.0012223","97.4623","347.4167","304.5332","55.4752","0","999","4334","0.0014127","0.00035446","0","4034787","0 SPACEBEE-162","1 55095U 23001CQ  23288.11146800  .00035446  00000-0  14127-2 0  9993","2 55095  97.4623 347.4167 0012223 304.5332  55.4752 15.25056795 43346","2023-001CQ","55095","6868.752","94.423","499.013","482.221","0"
"GENERATED VIA SPACETRACK.ORG API","18 SPCS","55095","SPACEBEE-162","PAYLOAD","U","23001CQ","2023-10-15 21:34:17","843232","15.2509985","0.0012239","97.4621","348.201","301.9453","58.0594","0","999","4346","0.0012043","0.00030224","0","4035078","0 SPACEBEE-162","1 55095U 23001CQ  23288.89881763  .00030224  00000-0  12043-2 0  9996","2 55095  97.4621 348.2010 0012239 301.9453  58.0594 15.25099850 43467","2023-001CQ","55095","6868.623","94.420","498.894","482.081","0"
